[{"OBJECT_NAME":"STARLINK-35567","OBJECT_ID":"2025-262S","EPOCH":"2026-03-08T23:55:38.652096","MEAN_MOTION":15.2760061,"ECCENTRICITY":1.339e-5,"INCLINATION":42.9969,"RA_OF_ASC_NODE":299.8049,"ARG_OF_PERICENTER":250.6221,"MEAN_ANOMALY":109.4616,"EPHEMERIS_TYPE":0,"CLASSIFICATION_TYPE":"U","NORAD_CAT_ID":66472,"ELEMENT_SET_NO":999,"REV_AT_EPOCH":1880,"BSTAR":0.0014537817,"MEAN_MOTION_DOT":0.00039985,"MEAN_MOTION_DDOT":0},{"OBJECT_NAME":"OBJECT F","OBJECT_ID":"2021-022F","EPOCH":"2026-03-09T23:37:37.165152","MEAN_MOTION":15.31317672,"ECCENTRICITY":0.00120882,"INCLINATION":97.3982,"RA_OF_ASC_NODE":329.8375,"ARG_OF_PERICENTER":85.9268,"MEAN_ANOMALY":274.3355,"EPHEMERIS_TYPE":0,"CLASSIFICATION_TYPE":"U","NORAD_CAT_ID":47937,"ELEMENT_SET_NO":999,"REV_AT_EPOCH":27452,"BSTAR":0.00038690553,"MEAN_MOTION_DOT":0.00011656,"MEAN_MOTION_DDOT":0}]
